ONEWEB-0377             
1 49303U 21090AA  23263.80569758 -.00000027  00000+0 -99376-4 0  9993
2 49303  87.9161 113.6202 0001786  75.1472 284.9859 13.20770822 98460
ONEWEB-0378             
1 49304U 21090AB  23263.61734773  .00000021  00000+0  18994-4 0  9993
2 49304  87.9174 113.6531 0001680  93.0530 267.0796 13.20771095 97708
ONEWEB-0379             
1 49305U 21090AC  23263.69660770  .00000002  00000+0 -30365-4 0  9993
2 49305  87.8987 128.8752 0001791  81.9492 278.1841 13.14502657 96127
ONEWEB-0380             
1 49306U 21090AD  23263.70671405  .00000020  00000+0  16450-4 0  9991
2 49306  87.9249 144.0923 0001718  72.9182 287.2139 13.19726090 94465
ONEWEB-0381             
1 49307U 21090AE  23263.94247118  .00000074  00000+0  14944-3 0  9992
2 49307  87.9223 113.5369 0001638  80.0518 280.0800 13.20770230 97799
ONEWEB-0382             
1 49308U 21090AF  23263.62679827  .00000010  00000+0 -65063-5 0  9995
2 49308  87.9161 113.6540 0001427  94.9193 265.2103 13.20770294 97748
ONEWEB-0383             
1 49309U 21090AG  23263.69026114  .00000253  00000+0  64888-3 0  9998
2 49309  87.8996 128.8587 0001760  87.3940 272.7391 13.14505620 96157
ONEWEB-0384             
1 49310U 21090AH  23263.62260915  .00000033  00000+0  48567-4 0  9995
2 49310  87.9174 113.6521 0001357 103.2358 256.8927 13.20770977 97752
